TRANSPORTER-16 OBJECT M 
1 68427U 26067M   26115.60046663  .00008944  00000+0  43727-3 0  9994
2 68427  97.4509  74.8651 0003080 122.3911 237.7621 15.18448086  3965
OUT OF THE BOX (OOTB)   
1 68428U 26067N   26115.53869636  .00003607  00000+0  18022-3 0  9991
2 68428  97.4533  74.8019 0002526 131.6817 228.4633 15.18092862  3959
TRANSPORTER-16 OBJECT P 
1 68429U 26067P   26115.53903574  .00011646  00000+0  57138-3 0  9995
2 68429  97.4475  74.7812 0002522 159.4267 200.7069 15.18254470  3959
TRANSPORTER-16 OBJECT Q 
1 68430U 26067Q   26115.53588205  .00006554  00000+0  32252-3 0  9999
2 68430  97.4463  74.7834 0002340 102.8062 257.3434 15.18331524  3955
DISCO-2                 
1 68431U 26067R   26115.53707343  .00007925  00000+0  38990-3 0  9994
2 68431  97.4564  74.8144 0003176 136.0285 224.1203 15.18270337  3957
TRANSPORTER-16 OBJECT S 
1 68432U 26067S   26114.35447475  .00004891  00000+0  24398-3 0  9997
2 68432  97.4521  73.6276 0002195 159.3000 200.8323 15.17982770  3771
T.MICROSAT-2            
1 68433U 26067T   26115.55981893  .00005381  00000+0  27654-3 0  9991
2 68433  97.4533  74.7748 0004030 233.5465 126.5397 15.16882542  3951
TRANSPORTER-16 OBJECT U 
1 68434U 26067U   26115.60237424  .00004036  00000+0  20051-3 0  9992
2 68434  97.4543  74.8728 0002974 121.3012 238.8514 15.18226709  3967
ION SCV-019 (ASTOUNDIN*)
1 68435U 26067V   26115.54574299  .00002966  00000+0  15066-3 0  9990
2 68435  97.4512  74.7865 0001590 182.5065 177.6161 15.17660913  3950
HAWK-14B                
1 68436U 26067W   26115.54666607  .00003747  00000+0  18867-3 0  9996
2 68436  97.4509  74.7847 0001695 183.2561 176.8662 15.17804915  3951
TRANSPORTER-16 OBJECT X 
1 68437U 26067X   26115.60663227  .00013520  00000+0  66400-3 0  9995
2 68437  97.4471  74.8416 0001881 160.9677 199.1628 15.18185108  3968
TRANSPORTER-16 OBJECT Y 
1 68438U 26067Y   26115.80409726  .00018127  00000+0  88571-3 0  9991
2 68438  97.4487  75.0437 0002280 176.2809 183.8443 15.18297706  3999
TRANSPORTER-16 OBJECT Z 
1 68439U 26067Z   26115.54370919  .00015214  00000+0  74964-3 0  9999
2 68439  97.4483  74.7782 0001221 175.2131 184.9115 15.18044764  3954
TRANSPORTER-16 OBJECT AA
1 68440U 26067AA  26115.54233656  .00021191  00000+0  10366-2 0  9993
2 68440  97.4481  74.7793 0001386 174.6203 185.5046 15.18226669  3957
HAWK-14C                
1 68441U 26067AB  26115.54688441  .00003737  00000+0  18816-3 0  9995
2 68441  97.4450  74.7442 0000831 234.5311 125.5846 15.17802491  3959
TRANSPORTER-16 OBJECT AC
1 68442U 26067AC  26115.55462345  .00005783  00000+0  29433-3 0  9990
2 68442  97.4502  74.7712 0002626 238.9101 121.1875 15.17198004  3959
